SCD 1                   
1 22490U 93009B   26193.99060258  .00000288  00000+0  28089-4 0  9996
2 22490  24.9704  48.2532 0042017  51.2320  94.1420 14.46128066764854
TECHSAT 1B (GO-32)      
1 25397U 98043D   26194.47571192  .00000017  00000+0  27612-4 0  9997
2 25397  99.0084 187.8991 0002145 117.0535 243.0862 14.24433165455074
SCD 2                   
1 25504U 98060A   26194.55417704  .00000281  00000+0  27734-4 0  9991
2 25504  24.9948 269.5575 0016949  42.4080 101.2086 14.45534519464148
DLR-TUBSAT              
1 25757U 99029B   26194.47167397  .00000012  00000+0  14973-4 0  9991
2 25757  98.6710 190.8422 0012956 270.4280  89.5430 14.52433079437068
TERRA                   
1 25994U 99068A   26194.45088281  .00000199  00000+0  49458-4 0  9991
2 25994  97.9443 242.9540 0003341 126.3051 291.3655 14.61122896413449
MAROC-TUBSAT            
1 27004U 01056D   26194.49888301 -.00000031  00000+0  17848-4 0  9994
2 27004  99.8096  11.8560 0020609  76.2815 304.6034 13.70263509229798
AQUA                    
1 27424U 02022A   26194.47787366  .00000374  00000+0  84157-4 0  9997
2 27424  98.4294 164.2891 0000886 109.8746 359.2727 14.62195610287114
SHIYAN-1 (SY-1)         
1 28220U 04012A   26194.20906282  .00008263  00000+0  25047-3 0  9991
2 28220  97.8692 273.9793 0004070 284.5782  75.5008 15.34420203215089
AURA                    
1 28376U 04026A   26194.48417286  .00000367  00000+0  83952-4 0  9996
2 28376  98.3430 151.1577 0001291  92.5256 267.6093 14.61366319170050
IRS-P5 (CARTOSAT-1)     
1 28649U 05017A   26194.51845377  .00000608  00000+0  66640-4 0  9993
2 28649  97.5307 216.3884 0001464  56.5157 303.6202 14.91114722147749
SINAH 1                 
1 28893U 05043D   26194.50131491  .00000136  00000+0  35244-4 0  9999
2 28893  98.2891 328.9828 0014275 188.8409 171.2543 14.64174852104376
RESURS-DK 1             
1 29228U 06021A   26194.47575610  .00000974  00000+0  60636-4 0  9993
2 29228  69.9309 271.4979 0006997 272.9641  87.0724 15.13315670106559
ARIRANG-2 (KOMPSAT-2)   
1 29268U 06031A   26194.52873708  .00000023  00000+0  12742-4 0  9993
2 29268  97.8310  17.7018 0014396 356.1487  78.4566 14.64674886 65335
LAPAN-TUBSAT            
1 29709U 07001A   26194.51595424  .00000309  00000+0  41932-4 0  9996
2 29709  98.1350 194.3347 0013617  98.3619 261.9140 14.85976972 55067
HAIYANG-1B              
1 31113U 07010A   26194.50466457  .00000029  00000+0  26779-4 0  9991
2 31113  98.3513 175.3313 0014614 120.4802 239.7827 14.31033054  4406
COSMO-SKYMED 1          
1 31598U 07023A   26194.46774542  .00001356  00000+0  12240-3 0  9995
2 31598  97.8844  26.5459 0001276 103.6107 256.5256 14.97214348 33722
TERRASAR-X              
1 31698U 07026A   26188.47915537  .00000240  00000+0  14624-4 0  9994
2 31698  97.4461 195.8972 0001878  86.9540 273.1909 15.19153986 56300
WORLDVIEW-1 (WV-1)      
1 32060U 07041A   26194.48292036  .00003443  00000+0  14277-3 0  9996
2 32060  97.3901 313.8568 0001368 213.9458 146.1692 15.24546988 46883
YAOGAN-3                
1 32289U 07055A   26194.50474968  .00001904  00000+0  19886-3 0  9994
2 32289  97.8148 224.1223 0001634  80.4028 279.7375 14.90879578  9798
COSMO-SKYMED 2          
1 32376U 07059A   26194.49014624  .00000200  00000+0  31722-4 0  9994
2 32376  97.8891  17.7074 0001422  94.0296 266.1080 14.82149755  5903
RADARSAT-2              
1 32382U 07061A   26194.48680144  .00000309  00000+0  13687-3 0  9998
2 32382  98.5780 201.0436 0001329  83.6026 276.5308 14.29984056969714
CARTOSAT-2A             
1 32783U 08021A   26194.49483091  .00000704  00000+0  10129-3 0  9990
2 32783  97.7628 242.3038 0012632  32.5024 327.6963 14.79276207982691
HUANJING 1A (HJ-1A)     
1 33320U 08041A   26194.52993904  .00001277  00000+0  15887-3 0  9995
2 33320  97.6690 179.3519 0020483  54.7069 305.6057 14.84049137962311
HUANJING 1B (HJ-1B)     
1 33321U 08041B   26194.51110936  .00000400  00000+0  54426-4 0  9991
2 33321  97.6526 182.4253 0037906  96.4807 264.0726 14.83362265962311
GEOEYE 1                
1 33331U 08042A   26194.45336370  .00000195  00000+0  45685-4 0  9996
2 33331  98.1328 268.0696 0004063 352.7090   7.4053 14.64648552953991
THEOS                   
1 33396U 08049A   26194.46021097 -.00000049  00000+0 -33353-5 0  9992
2 33396  98.5566 250.8892 0001152  87.6203 272.5106 14.20136285921696
COSMO-SKYMED 3          
1 33412U 08054A   26194.50283976  .00001304  00000+0  91050-4 0  9998
2 33412  97.8255  53.5093 0015679 171.8585 188.2900 15.07104085960902
YAOGAN-4                
1 33446U 08061A   26194.40969904  .00000496  00000+0  67212-4 0  9998
2 33446  97.9304 127.7272 0013993 351.5822   8.5155 14.83249395949557
GOSAT (IBUKI)           
1 33492U 09002A   26194.32031714  .00000338  00000+0  68026-4 0  9994
2 33492  98.0913 305.0769 0001134  91.0437 269.0898 14.67538398935290
DEIMOS-1                
1 35681U 09041A   26194.57083633  .00000255  00000+0  44710-4 0  9995
2 35681  97.7424 350.6590 0002757  94.4341 265.7184 14.75263199910776
DUBAISAT-1              
1 35682U 09041B   26194.33962990  .00000408  00000+0  67878-4 0  9992
2 35682  98.0080 327.3157 0010060 354.7546   5.3556 14.75165052908951
